{
    "links": {
        "self": "http://www.neowsapp.com/rest/v1/neo/3471659?api_key=iIulBulltgU6a56xZRHN4H3l9WmuAYTsLGpBGhQ2"
    },
    "id": "3471659",
    "neo_reference_id": "3471659",
    "name": "(2009 UL)",
    "designation": "2009 UL",
    "nasa_jpl_url": "http://ssd.jpl.nasa.gov/sbdb.cgi?sstr=3471659",
    "absolute_magnitude_h": 22.2,
    "estimated_diameter": {
        "kilometers": {
            "estimated_diameter_min": 0.096506147,
            "estimated_diameter_max": 0.2157943048
        },
        "meters": {
            "estimated_diameter_min": 96.5061469579,
            "estimated_diameter_max": 215.7943048444
        },
        "miles": {
            "estimated_diameter_min": 0.059966121,
            "estimated_diameter_max": 0.134088323
        },
        "feet": {
            "estimated_diameter_min": 316.6212271853,
            "estimated_diameter_max": 707.9865871058
        }
    },
    "is_potentially_hazardous_asteroid": false,
    "close_approach_data": [
        {
            "close_approach_date": "2009-11-09",
            "close_approach_date_full": "2009-Nov-09 02:07",
            "epoch_date_close_approach": 1257732420000,
            "relative_velocity": {
                "kilometers_per_second": "9.1139646359",
                "kilometers_per_hour": "32810.2726892176",
                "miles_per_hour": "20387.0274940308"
            },
            "miss_distance": {
                "astronomical": "0.3019341157",
                "lunar": "117.4523710073",
                "kilometers": "45168700.589053559",
                "miles": "28066529.0837907542"
            },
            "orbiting_body": "Earth"
        },
        {
            "close_approach_date": "2010-01-10",
            "close_approach_date_full": "2010-Jan-10 23:49",
            "epoch_date_close_approach": 1263167340000,
            "relative_velocity": {
                "kilometers_per_second": "10.0846545598",
                "kilometers_per_hour": "36304.7564153646",
                "miles_per_hour": "22558.3637848692"
            },
            "miss_distance": {
                "astronomical": "0.3005353666",
                "lunar": "116.9082576074",
                "kilometers": "44959450.703029142",
                "miles": "27936507.2338084796"
            },
            "orbiting_body": "Earth"
        }
    ],
    "orbital_data": {
        "orbit_id": "9",
        "orbit_determination_date": "2017-04-06 08:59:33",
        "first_observation_date": "2009-10-16",
        "last_observation_date": "2009-10-26",
        "data_arc_in_days": 10,
        "observations_used": 36,
        "orbit_uncertainty": "9",
        "minimum_orbit_intersection": ".13216",
        "jupiter_tisserand_invariant": "5.031",
        "epoch_osculation": "2455123.5",
        "eccentricity": ".4178628482073732",
        "semi_major_axis": "1.248802835862735",
        "inclination": "13.81306871082507",
        "ascending_node_longitude": "194.2213179206067",
        "orbital_period": "509.728881095426",
        "perihelion_distance": ".7269745260196879",
        "perihelion_argument": "312.216965985667",
        "aphelion_distance": "1.770631145705783",
        "perihelion_time": "2455230.325376957656",
        "mean_anomaly": "284.5537438998741",
        "mean_motion": ".7062578036118865",
        "equinox": "J2000",
        "orbit_class": {
            "orbit_class_type": "APO",
            "orbit_class_description": "Near-Earth asteroid orbits which cross the Earth’s orbit similar to that of 1862 Apollo",
            "orbit_class_range": "a (semi-major axis) > 1.0 AU; q (perihelion) < 1.017 AU"
        }
    },
    "is_sentry_object": false
}